HAWK-2C                 
1 47502U 21006CT  26068.67595434  .00008129  00000+0  25493-3 0  9997
2 47502  97.2417 114.9961 0006943 184.0877 176.0310 15.33286436284247
STARLINK-2358           
1 47898U 21021AQ  26068.80973759 -.00001931  00000+0 -53123-4 0  9995
2 47898  53.1616 267.5593 0000962  68.7622 291.3482 15.30190168276216
